[{"OBJECT_NAME":"STARLINK-36359","OBJECT_ID":"2026-038U","EPOCH":"2026-03-20T04:00:01.999584","MEAN_MOTION":15.61399827,"ECCENTRICITY":0.0001594,"INCLINATION":97.2855,"RA_OF_ASC_NODE":90.0053,"ARG_OF_PERICENTER":73.4947,"MEAN_ANOMALY":39.3272,"EPHEMERIS_TYPE":0,"CLASSIFICATION_TYPE":"U","NORAD_CAT_ID":67979,"ELEMENT_SET_NO":999,"REV_AT_EPOCH":488,"BSTAR":-0.031244,"MEAN_MOTION_DOT":-0.02339182,"MEAN_MOTION_DDOT":0},{"OBJECT_NAME":"STARLINK-36882","OBJECT_ID":"2026-038V","EPOCH":"2026-03-20T02:00:03.000384","MEAN_MOTION":15.59162407,"ECCENTRICITY":0.0001352,"INCLINATION":97.2849,"RA_OF_ASC_NODE":89.9154,"ARG_OF_PERICENTER":71.121,"MEAN_ANOMALY":289.7267,"EPHEMERIS_TYPE":0,"CLASSIFICATION_TYPE":"U","NORAD_CAT_ID":67980,"ELEMENT_SET_NO":999,"REV_AT_EPOCH":487,"BSTAR":-0.034272,"MEAN_MOTION_DOT":-0.02352236,"MEAN_MOTION_DDOT":0},{"OBJECT_NAME":"STARLINK-36874","OBJECT_ID":"2026-038W","EPOCH":"2026-03-20T02:00:03.000384","MEAN_MOTION":15.66473905,"ECCENTRICITY":0.0001628,"INCLINATION":97.2856,"RA_OF_ASC_NODE":89.9449,"ARG_OF_PERICENTER":66.3151,"MEAN_ANOMALY":12.7574,"EPHEMERIS_TYPE":0,"CLASSIFICATION_TYPE":"U","NORAD_CAT_ID":67981,"ELEMENT_SET_NO":999,"REV_AT_EPOCH":487,"BSTAR":-0.026305,"MEAN_MOTION_DOT":-0.02399783,"MEAN_MOTION_DDOT":0},{"OBJECT_NAME":"STARLINK-36879","OBJECT_ID":"2026-038X","EPOCH":"2026-03-20T02:00:03.000384","MEAN_MOTION":15.49159243,"ECCENTRICITY":9.44e-5,"INCLINATION":97.2849,"RA_OF_ASC_NODE":89.8286,"ARG_OF_PERICENTER":70.3147,"MEAN_ANOMALY":80.4013,"EPHEMERIS_TYPE":0,"CLASSIFICATION_TYPE":"U","NORAD_CAT_ID":67982,"ELEMENT_SET_NO":999,"REV_AT_EPOCH":487,"BSTAR":0.0010031,"MEAN_MOTION_DOT":0.0005479,"MEAN_MOTION_DDOT":0},{"OBJECT_NAME":"STARLINK-36867","OBJECT_ID":"2026-038Y","EPOCH":"2026-03-20T02:00:03.000384","MEAN_MOTION":15.4915387,"ECCENTRICITY":0.0001593,"INCLINATION":97.2846,"RA_OF_ASC_NODE":89.8594,"ARG_OF_PERICENTER":95.1261,"MEAN_ANOMALY":129.592,"EPHEMERIS_TYPE":0,"CLASSIFICATION_TYPE":"U","NORAD_CAT_ID":67983,"ELEMENT_SET_NO":999,"REV_AT_EPOCH":487,"BSTAR":0.00067865,"MEAN_MOTION_DOT":0.00036948,"MEAN_MOTION_DDOT":0},{"OBJECT_NAME":"STARLINK-36266","OBJECT_ID":"2026-038Z","EPOCH":"2026-03-20T02:00:03.000384","MEAN_MOTION":15.66941084,"ECCENTRICITY":0.0001738,"INCLINATION":97.2854,"RA_OF_ASC_NODE":89.9518,"ARG_OF_PERICENTER":70.814,"MEAN_ANOMALY":27.1189,"EPHEMERIS_TYPE":0,"CLASSIFICATION_TYPE":"U","NORAD_CAT_ID":67984,"ELEMENT_SET_NO":999,"REV_AT_EPOCH":484,"BSTAR":-0.025734,"MEAN_MOTION_DOT":-0.02393622,"MEAN_MOTION_DDOT":0},{"OBJECT_NAME":"STARLINK-36802","OBJECT_ID":"2026-038AA","EPOCH":"2026-03-19T23:53:57.204672","MEAN_MOTION":15.7525986,"ECCENTRICITY":0.0001394,"INCLINATION":97.2877,"RA_OF_ASC_NODE":89.868,"ARG_OF_PERICENTER":94.2528,"MEAN_ANOMALY":265.8897,"EPHEMERIS_TYPE":0,"CLASSIFICATION_TYPE":"U","NORAD_CAT_ID":67985,"ELEMENT_SET_NO":999,"REV_AT_EPOCH":481,"BSTAR":0.0012802,"MEAN_MOTION_DOT":0.0019585,"MEAN_MOTION_DDOT":0},{"OBJECT_NAME":"STARLINK-36535","OBJECT_ID":"2026-039A","EPOCH":"2026-03-20T02:00:03.000384","MEAN_MOTION":15.58559612,"ECCENTRICITY":0.0001561,"INCLINATION":42.9998,"RA_OF_ASC_NODE":351.8326,"ARG_OF_PERICENTER":264.953,"MEAN_ANOMALY":130.8641,"EPHEMERIS_TYPE":0,"CLASSIFICATION_TYPE":"U","NORAD_CAT_ID":67986,"ELEMENT_SET_NO":999,"REV_AT_EPOCH":454,"BSTAR":-0.027055,"MEAN_MOTION_DOT":-0.01882066,"MEAN_MOTION_DDOT":0},{"OBJECT_NAME":"STARLINK-36744","OBJECT_ID":"2026-039B","EPOCH":"2026-03-20T02:00:03.000384","MEAN_MOTION":15.60032352,"ECCENTRICITY":0.0001443,"INCLINATION":42.9997,"RA_OF_ASC_NODE":351.7504,"ARG_OF_PERICENTER":273.7888,"MEAN_ANOMALY":155.0059,"EPHEMERIS_TYPE":0,"CLASSIFICATION_TYPE":"U","NORAD_CAT_ID":67987,"ELEMENT_SET_NO":999,"REV_AT_EPOCH":454,"BSTAR":-0.025749,"MEAN_MOTION_DOT":-0.01893965,"MEAN_MOTION_DDOT":0},{"OBJECT_NAME":"STARLINK-36734","OBJECT_ID":"2026-039C","EPOCH":"2026-03-20T02:00:03.000384","MEAN_MOTION":15.50577663,"ECCENTRICITY":0.000158,"INCLINATION":42.9999,"RA_OF_ASC_NODE":352.8356,"ARG_OF_PERICENTER":258.9192,"MEAN_ANOMALY":90.7523,"EPHEMERIS_TYPE":0,"CLASSIFICATION_TYPE":"U","NORAD_CAT_ID":67988,"ELEMENT_SET_NO":999,"REV_AT_EPOCH":454,"BSTAR":-0.00072051,"MEAN_MOTION_DOT":-0.0004238,"MEAN_MOTION_DDOT":0},{"OBJECT_NAME":"STARLINK-36957","OBJECT_ID":"2026-039D","EPOCH":"2026-03-20T02:00:03.000384","MEAN_MOTION":15.588893,"ECCENTRICITY":0.0001578,"INCLINATION":42.9999,"RA_OF_ASC_NODE":351.7827,"ARG_OF_PERICENTER":267.8168,"MEAN_ANOMALY":147.398,"EPHEMERIS_TYPE":0,"CLASSIFICATION_TYPE":"U","NORAD_CAT_ID":67989,"ELEMENT_SET_NO":999,"REV_AT_EPOCH":454,"BSTAR":-0.026808,"MEAN_MOTION_DOT":-0.01887826,"MEAN_MOTION_DDOT":0},{"OBJECT_NAME":"STARLINK-36951","OBJECT_ID":"2026-039E","EPOCH":"2026-03-19T20:00:01.999872","MEAN_MOTION":15.55946213,"ECCENTRICITY":0.00016348,"INCLINATION":42.9998,"RA_OF_ASC_NODE":353.4583,"ARG_OF_PERICENTER":252.7205,"MEAN_ANOMALY":118.5126,"EPHEMERIS_TYPE":0,"CLASSIFICATION_TYPE":"U","NORAD_CAT_ID":67990,"ELEMENT_SET_NO":999,"REV_AT_EPOCH":450,"BSTAR":-0.030185513,"MEAN_MOTION_DOT":-0.01899673,"MEAN_MOTION_DDOT":0},{"OBJECT_NAME":"STARLINK-36941","OBJECT_ID":"2026-039F","EPOCH":"2026-03-20T02:00:03.000384","MEAN_MOTION":15.50562501,"ECCENTRICITY":0.0001276,"INCLINATION":43,"RA_OF_ASC_NODE":352.8257,"ARG_OF_PERICENTER":263.6039,"MEAN_ANOMALY":89.4972,"EPHEMERIS_TYPE":0,"CLASSIFICATION_TYPE":"U","NORAD_CAT_ID":67991,"ELEMENT_SET_NO":999,"REV_AT_EPOCH":454,"BSTAR":-0.00020066,"MEAN_MOTION_DOT":-0.00012088,"MEAN_MOTION_DDOT":0},{"OBJECT_NAME":"STARLINK-36950","OBJECT_ID":"2026-039G","EPOCH":"2026-03-20T02:00:03.000384","MEAN_MOTION":15.50567602,"ECCENTRICITY":0.0001871,"INCLINATION":42.9997,"RA_OF_ASC_NODE":352.4483,"ARG_OF_PERICENTER":255.8657,"MEAN_ANOMALY":249.9626,"EPHEMERIS_TYPE":0,"CLASSIFICATION_TYPE":"U","NORAD_CAT_ID":67992,"ELEMENT_SET_NO":999,"REV_AT_EPOCH":454,"BSTAR":1.2466e-5,"MEAN_MOTION_DOT":3.89e-6,"MEAN_MOTION_DDOT":0},{"OBJECT_NAME":"STARLINK-36975","OBJECT_ID":"2026-039H","EPOCH":"2026-03-20T02:00:03.000384","MEAN_MOTION":15.50577529,"ECCENTRICITY":0.000141,"INCLINATION":42.9993,"RA_OF_ASC_NODE":352.3503,"ARG_OF_PERICENTER":244.2885,"MEAN_ANOMALY":300.8155,"EPHEMERIS_TYPE":0,"CLASSIFICATION_TYPE":"U","NORAD_CAT_ID":67993,"ELEMENT_SET_NO":999,"REV_AT_EPOCH":454,"BSTAR":-0.00062889,"MEAN_MOTION_DOT":-0.00037059,"MEAN_MOTION_DDOT":0},{"OBJECT_NAME":"STARLINK-36993","OBJECT_ID":"2026-039J","EPOCH":"2026-03-20T02:00:03.000384","MEAN_MOTION":15.59094474,"ECCENTRICITY":0.0001439,"INCLINATION":42.9994,"RA_OF_ASC_NODE":351.7193,"ARG_OF_PERICENTER":272.0974,"MEAN_ANOMALY":168.4819,"EPHEMERIS_TYPE":0,"CLASSIFICATION_TYPE":"U","NORAD_CAT_ID":67994,"ELEMENT_SET_NO":999,"REV_AT_EPOCH":454,"BSTAR":-0.026709,"MEAN_MOTION_DOT":-0.01894686,"MEAN_MOTION_DDOT":0},{"OBJECT_NAME":"STARLINK-36968","OBJECT_ID":"2026-039K","EPOCH":"2026-03-20T02:00:03.000384","MEAN_MOTION":15.50580773,"ECCENTRICITY":0.0001603,"INCLINATION":42.9997,"RA_OF_ASC_NODE":352.5509,"ARG_OF_PERICENTER":270.3004,"MEAN_ANOMALY":193.6876,"EPHEMERIS_TYPE":0,"CLASSIFICATION_TYPE":"U","NORAD_CAT_ID":67995,"ELEMENT_SET_NO":999,"REV_AT_EPOCH":454,"BSTAR":-0.00086842,"MEAN_MOTION_DOT":-0.00050961,"MEAN_MOTION_DDOT":0}]
