STARLINK-36359          
1 67979U 26038U   26079.16668981 -.02339182  00000+0 -31244-1 0  9990
2 67979  97.2855  90.0053 0001594  73.4947  39.3272 15.61399827  4883
STARLINK-36882          
1 67980U 26038V   26079.08336806 -.02352236  00000+0 -34272-1 0  9990
2 67980  97.2849  89.9154 0001352  71.1210 289.7267 15.59162407  4870
STARLINK-36874          
1 67981U 26038W   26079.08336806 -.02399783  00000+0 -26305-1 0  9997
2 67981  97.2856  89.9449 0001628  66.3151  12.7574 15.66473905  4873
STARLINK-36879          
1 67982U 26038X   26079.08336806  .00054790  00000+0  10031-2 0  9990
2 67982  97.2849  89.8286 0000944  70.3147  80.4013 15.49159243  4871
STARLINK-36867          
1 67983U 26038Y   26079.08336806  .00036948  00000+0  67865-3 0  9994
2 67983  97.2846  89.8594 0001593  95.1261 129.5920 15.49153870  4876
STARLINK-36266          
1 67984U 26038Z   26079.08336806 -.02393622  00000+0 -25734-1 0  9991
2 67984  97.2854  89.9518 0001738  70.8140  27.1189 15.66941084  4848
STARLINK-36802          
1 67985U 26038AA  26078.99580098  .00195850  00000+0  12802-2 0  9997
2 67985  97.2877  89.8680 0001394  94.2528 265.8897 15.75259860  4819
STARLINK-36535          
1 67986U 26039A   26079.08336806 -.01882066  00000+0 -27055-1 0  9996
2 67986  42.9998 351.8326 0001561 264.9530 130.8641 15.58559612  4542
STARLINK-36744          
1 67987U 26039B   26079.08336806 -.01893965  00000+0 -25749-1 0  9995
2 67987  42.9997 351.7504 0001443 273.7888 155.0059 15.60032352  4544
STARLINK-36734          
1 67988U 26039C   26079.08336806 -.00042380  00000+0 -72051-3 0  9992
2 67988  42.9999 352.8356 0001580 258.9192  90.7523 15.50577663  4548
STARLINK-36957          
1 67989U 26039D   26079.08336806 -.01887826  00000+0 -26808-1 0  9993
2 67989  42.9999 351.7827 0001578 267.8168 147.3980 15.58889300  4547
STARLINK-36951          
1 67990U 26039E   26078.83335648 -.01899673  00000+0 -30186-1 0  9997
2 67990  42.9998 353.4583 0001634 252.7205 118.5126 15.55946213  4506
STARLINK-36941          
1 67991U 26039F   26079.08336806 -.00012088  00000+0 -20066-3 0  9997
2 67991  43.0000 352.8257 0001276 263.6039  89.4972 15.50562501  4540
STARLINK-36950          
1 67992U 26039G   26079.08336806  .00000389  00000+0  12466-4 0  9993
2 67992  42.9997 352.4483 0001871 255.8657 249.9626 15.50567602  4547
STARLINK-36975          
1 67993U 26039H   26079.08336806 -.00037059  00000+0 -62889-3 0  9993
2 67993  42.9993 352.3503 0001410 244.2885 300.8155 15.50577529  4543
STARLINK-36993          
1 67994U 26039J   26079.08336806 -.01894686  00000+0 -26709-1 0  9991
2 67994  42.9994 351.7193 0001439 272.0974 168.4819 15.59094474  4549
STARLINK-36968          
1 67995U 26039K   26079.08336806 -.00050961  00000+0 -86842-3 0  9997
2 67995  42.9997 352.5509 0001603 270.3004 193.6876 15.50580773  4547
